[{"OBJECT_NAME":"STARLINK-4321","OBJECT_ID":"2022-077AR","EPOCH":"2026-03-09T10:53:42.751392","MEAN_MOTION":15.01260631,"ECCENTRICITY":0.00011762,"INCLINATION":97.6032,"RA_OF_ASC_NODE":249.989,"ARG_OF_PERICENTER":87.6483,"MEAN_ANOMALY":272.4876,"EPHEMERIS_TYPE":0,"CLASSIFICATION_TYPE":"U","NORAD_CAT_ID":53082,"ELEMENT_SET_NO":999,"REV_AT_EPOCH":20088,"BSTAR":5.0339452e-5,"MEAN_MOTION_DOT":5.88e-6,"MEAN_MOTION_DDOT":0},{"OBJECT_NAME":"UM5-EOSAT","OBJECT_ID":"2024-149CR","EPOCH":"2026-03-09T17:21:09.122400","MEAN_MOTION":15.00894746,"ECCENTRICITY":0.00087192,"INCLINATION":97.6855,"RA_OF_ASC_NODE":148.6787,"ARG_OF_PERICENTER":107.8964,"MEAN_ANOMALY":252.3212,"EPHEMERIS_TYPE":0,"CLASSIFICATION_TYPE":"U","NORAD_CAT_ID":60555,"ELEMENT_SET_NO":999,"REV_AT_EPOCH":8529,"BSTAR":0.00036077282,"MEAN_MOTION_DOT":4.537e-5,"MEAN_MOTION_DDOT":0}]
